{
  "norad_id": 59434,
  "name": "STARLINK-31580",
  "history": [
    {
      "epoch": "2026-03-28T16:59:26.638944Z",
      "apogee_km": 476.1040148757693,
      "perigee_km": 474.3344782929007,
      "latitude_deg": -8.82547515250536e-06,
      "longitude_deg": 114.30857736218,
      "height_km": 475.99077096326187,
      "semi_major_axis_km": 6853.356246584334,
      "eccentricity": 0.0001291,
      "inclination_deg": 53.1606,
      "raan_deg": 195.2941,
      "arg_perigee_deg": 81.7729,
      "mean_anomaly_deg": 278.3418,
      "mean_motion_rev_day": 15.30198601
    },
    {
      "epoch": "2026-03-30T12:52:56.893440Z",
      "apogee_km": 476.15203221055526,
      "perigee_km": 474.3512358130829,
      "latitude_deg": 1.912871157535267e-05,
      "longitude_deg": 165.63396920132135,
      "height_km": 476.07668360424026,
      "semi_major_axis_km": 6853.388634011819,
      "eccentricity": 0.00013138,
      "inclination_deg": 53.161,
      "raan_deg": 186.7981,
      "arg_perigee_deg": 85.345,
      "mean_anomaly_deg": 274.7701,
      "mean_motion_rev_day": 15.30187754
    },
    {
      "epoch": "2026-03-30T16:00:59.364000Z",
      "apogee_km": 476.0803090254076,
      "perigee_km": 474.1084972860908,
      "latitude_deg": -1.3203707807561369e-05,
      "longitude_deg": 117.88824165265709,
      "height_km": 475.92205181440124,
      "semi_major_axis_km": 6853.231403155749,
      "eccentricity": 0.00014386,
      "inclination_deg": 53.161,
      "raan_deg": 186.1914,
      "arg_perigee_deg": 85.9096,
      "mean_anomaly_deg": 274.2069,
      "mean_motion_rev_day": 15.30240414
    },
    {
      "epoch": "2026-03-31T12:23:46.159872Z",
      "apogee_km": 475.7810828251204,
      "perigee_km": 474.8961620527516,
      "latitude_deg": 3.918527570976114e-05,
      "longitude_deg": 167.41393586900767,
      "height_km": 476.20624596375194,
      "semi_major_axis_km": 6853.475622438936,
      "eccentricity": 6.456e-05,
      "inclination_deg": 53.162,
      "raan_deg": 182.249,
      "arg_perigee_deg": 85.9205,
      "mean_anomaly_deg": 274.187,
      "mean_motion_rev_day": 15.30158621
    },
    {
      "epoch": "2026-04-01T11:54:33.287904Z",
      "apogee_km": 476.20979000554325,
      "perigee_km": 474.4443376626996,
      "latitude_deg": 2.2311460689987423e-05,
      "longitude_deg": 169.2009094519582,
      "height_km": 476.033939861721,
      "semi_major_axis_km": 6853.464063834122,
      "eccentricity": 0.0001288,
      "inclination_deg": 53.1577,
      "raan_deg": 177.698,
      "arg_perigee_deg": 77.5068,
      "mean_anomaly_deg": 282.6077,
      "mean_motion_rev_day": 15.30162492
    },
    {
      "epoch": "2026-04-02T09:51:16.461216Z",
      "apogee_km": 475.57745573342254,
      "perigee_km": 474.9624309943247,
      "latitude_deg": 3.4252916258135516e-05,
      "longitude_deg": -165.12983205813052,
      "height_km": 476.1232135924064,
      "semi_major_axis_km": 6853.406943363873,
      "eccentricity": 4.487e-05,
      "inclination_deg": 53.1631,
      "raan_deg": 173.4484,
      "arg_perigee_deg": 81.3568,
      "mean_anomaly_deg": 278.7484,
      "mean_motion_rev_day": 15.30181622
    },
    {
      "epoch": "2026-04-02T22:23:42.545184Z",
      "apogee_km": 475.7478740209299,
      "perigee_km": 474.7844226063389,
      "latitude_deg": -3.639203691959321e-05,
      "longitude_deg": 3.820909207411653,
      "height_km": 476.0953505772854,
      "semi_major_axis_km": 6853.403148313634,
      "eccentricity": 7.029e-05,
      "inclination_deg": 53.1654,
      "raan_deg": 171.0229,
      "arg_perigee_deg": 81.6185,
      "mean_anomaly_deg": 278.4895,
      "mean_motion_rev_day": 15.30182893
    },
    {
      "epoch": "2026-04-03T14:04:16.737312Z",
      "apogee_km": 475.82863372495103,
      "perigee_km": 474.77594545007105,
      "latitude_deg": -2.014874623944842e-05,
      "longitude_deg": 124.99945690872104,
      "height_km": 476.1467719713819,
      "semi_major_axis_km": 6853.439289587511,
      "eccentricity": 7.68e-05,
      "inclination_deg": 53.1617,
      "raan_deg": 167.9877,
      "arg_perigee_deg": 84.0628,
      "mean_anomaly_deg": 276.046,
      "mean_motion_rev_day": 15.30170789
    },
    {
      "epoch": "2026-04-04T12:00:58.426272Z",
      "apogee_km": 476.0940955304841,
      "perigee_km": 474.2813911358726,
      "latitude_deg": -1.6296305304116053e-06,
      "longitude_deg": 150.6766206211917,
      "height_km": 476.2742098535101,
      "semi_major_axis_km": 6853.324743333178,
      "eccentricity": 0.00013225,
      "inclination_deg": 53.1606,
      "raan_deg": 163.7398,
      "arg_perigee_deg": 101.9947,
      "mean_anomaly_deg": 258.1202,
      "mean_motion_rev_day": 15.30209152
    },
    {
      "epoch": "2026-04-05T13:05:52.669536Z",
      "apogee_km": 476.2977454017155,
      "perigee_km": 474.3686306131958,
      "latitude_deg": 9.334432013131343e-07,
      "longitude_deg": 128.5663372553711,
      "height_km": 476.2451622623768,
      "semi_major_axis_km": 6853.470188007455,
      "eccentricity": 0.00014074,
      "inclination_deg": 53.1617,
      "raan_deg": 158.8856,
      "arg_perigee_deg": 90.827,
      "mean_anomaly_deg": 269.2892,
      "mean_motion_rev_day": 15.30160441
    },
    {
      "epoch": "2026-04-05T14:39:55.935648Z",
      "apogee_km": 476.2220352080094,
      "perigee_km": 474.4360219609607,
      "latitude_deg": -1.0250745209550263e-06,
      "longitude_deg": 104.68454890597104,
      "height_km": 476.2449355511304,
      "semi_major_axis_km": 6853.466028584485,
      "eccentricity": 0.0001303,
      "inclination_deg": 53.1616,
      "raan_deg": 158.5818,
      "arg_perigee_deg": 91.137,
      "mean_anomaly_deg": 268.978,
      "mean_motion_rev_day": 15.30161834
    },
    {
      "epoch": "2026-04-06T03:12:20.327904Z",
      "apogee_km": 476.1006468950545,
      "perigee_km": 474.31507642479755,
      "latitude_deg": 1.8273797298275742e-06,
      "longitude_deg": -86.35778837211811,
      "height_km": 476.084622784792,
      "semi_major_axis_km": 6853.344861659925,
      "eccentricity": 0.00013027,
      "inclination_deg": 53.162,
      "raan_deg": 156.1561,
      "arg_perigee_deg": 88.621,
      "mean_anomaly_deg": 271.494,
      "mean_motion_rev_day": 15.30202414
    },
    {
      "epoch": "2026-04-07T10:33:24.126912Z",
      "apogee_km": 475.97467434087685,
      "perigee_km": 474.5386142366515,
      "latitude_deg": 5.179521387462136e-05,
      "longitude_deg": 156.01667412736177,
      "height_km": 475.79375136736934,
      "semi_major_axis_km": 6853.393644288763,
      "eccentricity": 0.00010477,
      "inclination_deg": 53.1597,
      "raan_deg": 150.0839,
      "arg_perigee_deg": 59.7781,
      "mean_anomaly_deg": 300.3324,
      "mean_motion_rev_day": 15.30186076
    },
    {
      "epoch": "2026-04-07T19:57:43.516224Z",
      "apogee_km": 476.1163315943668,
      "perigee_km": 474.39475938693886,
      "latitude_deg": 3.9041874961419304e-05,
      "longitude_deg": 12.73550920214603,
      "height_km": 476.1196176746838,
      "semi_major_axis_km": 6853.392545490652,
      "eccentricity": 0.0001256,
      "inclination_deg": 53.1596,
      "raan_deg": 148.2698,
      "arg_perigee_deg": 87.7383,
      "mean_anomaly_deg": 272.3762,
      "mean_motion_rev_day": 15.30186444
    },
    {
      "epoch": "2026-04-08T06:56:05.372448Z",
      "apogee_km": 476.06353572760327,
      "perigee_km": 474.3752799101012,
      "latitude_deg": 1.2203188231956506e-05,
      "longitude_deg": -154.4291141107683,
      "height_km": 476.1009766155808,
      "semi_major_axis_km": 6853.356407818852,
      "eccentricity": 0.00012317,
      "inclination_deg": 53.1614,
      "raan_deg": 146.1469,
      "arg_perigee_deg": 88.8659,
      "mean_anomaly_deg": 271.2483,
      "mean_motion_rev_day": 15.30198547
    },
    {
      "epoch": "2026-04-09T09:34:59.344608Z",
      "apogee_km": 476.0262900062653,
      "perigee_km": 474.44631332529843,
      "latitude_deg": 5.076525652077967e-05,
      "longitude_deg": 159.5921194179173,
      "height_km": 475.98455532556454,
      "semi_major_axis_km": 6853.373301665782,
      "eccentricity": 0.00011527,
      "inclination_deg": 53.1605,
      "raan_deg": 140.9874,
      "arg_perigee_deg": 79.0503,
      "mean_anomaly_deg": 281.0628,
      "mean_motion_rev_day": 15.30192889
    },
    {
      "epoch": "2026-04-11T11:44:41.646624Z",
      "apogee_km": 476.04466824773044,
      "perigee_km": 474.4272722267542,
      "latitude_deg": -3.2663870016375283e-05,
      "longitude_deg": 115.39792407164465,
      "height_km": 475.9519155646193,
      "semi_major_axis_km": 6853.372970237242,
      "eccentricity": 0.000118,
      "inclination_deg": 53.1598,
      "raan_deg": 131.2796,
      "arg_perigee_deg": 76.9738,
      "mean_anomaly_deg": 283.1394,
      "mean_motion_rev_day": 15.30193
    },
    {
      "epoch": "2026-04-12T19:05:45.619296Z",
      "apogee_km": 476.1099395395695,
      "perigee_km": 474.37055239454276,
      "latitude_deg": 2.4058478456647005e-05,
      "longitude_deg": -2.2234317390794285,
      "height_km": 475.98119194217924,
      "semi_major_axis_km": 6853.377245967056,
      "eccentricity": 0.0001269,
      "inclination_deg": 53.1603,
      "raan_deg": 125.2123,
      "arg_perigee_deg": 79.5872,
      "mean_anomaly_deg": 280.5272,
      "mean_motion_rev_day": 15.30191568
    },
    {
      "epoch": "2026-04-14T18:07:21.561024Z",
      "apogee_km": 476.0912293657793,
      "perigee_km": 474.40529659108597,
      "latitude_deg": -3.6150530289448696e-05,
      "longitude_deg": 1.34435191852424,
      "height_km": 475.9988112783008,
      "semi_major_axis_km": 6853.385262978432,
      "eccentricity": 0.000123,
      "inclination_deg": 53.1602,
      "raan_deg": 116.1112,
      "arg_perigee_deg": 79.9135,
      "mean_anomaly_deg": 280.2004,
      "mean_motion_rev_day": 15.30188883
    }
  ]
}